HAWK-C                  
1 43799U 18099AT  26068.67261865  .00009431  00000+0  35663-3 0  9994
2 43799  97.4027 122.6817 0040363 277.4052  82.2601 15.26407167398720
STARLINK-34863          
1 66190U 25243P   26068.76819120  .00028985  00000+0  98701-3 0  9993
2 66190  53.1585 245.0418 0000799  71.4702 288.6386 15.30197257 20666
